{"fetched_at":"2026-03-29T16:36:15Z","count":15609,"tles":[{"name":"STARLINK-32816","line1":"1 63050U 25034X   26087.62631732  .00012021  00000+0  41729-3 0  9992","line2":"2 63050  53.1590 183.1181 0001353  70.5960 289.5187 15.30203991 61809","category":"Starlink"}]}