{
  "norad_id": 63050,
  "name": "STARLINK-32816",
  "history": [
    {
      "epoch": "2026-03-28T15:01:53.816448",
      "apogee_km": 476.13068409491734,
      "perigee_km": 474.27562198229316,
      "latitude_deg": -44.1130565552148,
      "longitude_deg": -174.87353728013113,
      "semi_major_axis_km": 6853.340153038605,
      "eccentricity": 0.00013534,
      "inclination_deg": 53.159,
      "raan_deg": 183.1181,
      "arg_perigee_deg": 70.596,
      "mean_anomaly_deg": 289.5187,
      "mean_motion_rev_day": 15.30203991
    }
  ]
}